{"type": "FeatureCollection", "features": [ {"type": "Feature", "properties": {"norad_id": 44506, "name": "GPS BIII-2  (PRN 18)", "group": "gnss", "lat": -26.936889313313404, "lon": -42.010205581549315, "alt_km": 20279.526125676402, "timestamp": "2025-12-19T14:48:36.490893+00:00", "meta": {"OBJECT_NAME": "GPS BIII-2  (PRN 18)", "OBJECT_ID": "2019-056A", "EPOCH": "2025-12-19T05:28:09.023808", "MEAN_MOTION": 2.00566646, "ECCENTRICITY": 0.00577244, "INCLINATION": 55.7191, "RA_OF_ASC_NODE": 338.2952, "ARG_OF_PERICENTER": 198.526, "MEAN_ANOMALY": 206.6724, "EPHEMERIS_TYPE": 0, "CLASSIFICATION_TYPE": "U", "NORAD_CAT_ID": 44506, "ELEMENT_SET_NO": 999, "REV_AT_EPOCH": 4646, "BSTAR": 0, "MEAN_MOTION_DOT": -8.1e-07, "MEAN_MOTION_DDOT": 0}, "tle": {"line1": "1 44506U 19056A   25353.22788222 -.00000081  00000+0  00000+0 0  9999", "line2": "2 44506  55.7191 338.2952 0057724 198.5260 206.6724  2.00566646 46469"}}, "geometry": {"type": "Point", "coordinates": [-42.010205581549315, -26.936889313313404]}}, {"type": "Feature", "properties": {"norad_id": 44542, "name": "BEIDOU-3 M24 (C46)", "group": "gnss", "lat": 7.43028851039395, "lon": 3.4261507563221802, "alt_km": 21549.60418177628, "timestamp": "2025-12-19T14:48:36.490904+00:00", "meta": {"OBJECT_NAME": "BEIDOU-3 M24 (C46)", "OBJECT_ID": "2019-061A", "EPOCH": "2025-12-18T19:48:47.972736", "MEAN_MOTION": 1.86229393, "ECCENTRICITY": 0.00096105, "INCLINATION": 54.4002, "RA_OF_ASC_NODE": 188.8106, "ARG_OF_PERICENTER": 25.1866, "MEAN_ANOMALY": 334.925, "EPHEMERIS_TYPE": 0, "CLASSIFICATION_TYPE": "U", "NORAD_CAT_ID": 44542, "ELEMENT_SET_NO": 999, "REV_AT_EPOCH": 4243, "BSTAR": 0, "MEAN_MOTION_DOT": 1.06e-06, "MEAN_MOTION_DDOT": 0}, "tle": {"line1": "1 44542U 19061A   25352.82555524  .00000106  00000+0  00000+0 0  9994", "line2": "2 44542  54.4002 188.8106 0009610  25.1866 334.9250  1.86229393 42434"}}, "geometry": {"type": "Point", "coordinates": [3.4261507563221802, 7.43028851039395]}}, {"type": "Feature", "properties": {"norad_id": 44543, "name": "BEIDOU-3 M23 (C45)", "group": "gnss", "lat": 53.86041113666493, "lon": -92.24705471517917, "alt_km": 21513.255688385772, "timestamp": "2025-12-19T14:48:36.490915+00:00", "meta": {"OBJECT_NAME": "BEIDOU-3 M23 (C45)", "OBJECT_ID": "2019-061B", "EPOCH": "2025-12-19T04:54:38.810304", "MEAN_MOTION": 1.86227724, "ECCENTRICITY": 0.0006055, "INCLINATION": 54.3992, "RA_OF_ASC_NODE": 188.7663, "ARG_OF_PERICENTER": 24.9207, "MEAN_ANOMALY": 142.055, "EPHEMERIS_TYPE": 0, "CLASSIFICATION_TYPE": "U", "NORAD_CAT_ID": 44543, "ELEMENT_SET_NO": 999, "REV_AT_EPOCH": 4244, "BSTAR": 0, "MEAN_MOTION_DOT": 1.04e-06, "MEAN_MOTION_DDOT": 0}, "tle": {"line1": "1 44543U 19061B   25353.20461586  .00000104  00000+0  00000+0 0  9990", "line2": "2 44543  54.3992 188.7663 0006055  24.9207 142.0550  1.86227724 42443"}}, "geometry": {"type": "Point", "coordinates": [-92.24705471517917, 53.86041113666493]}}, {"type": "Feature", "properties": {"norad_id": 44624, "name": "EUTELSAT 5 WEST B (EGNOS/PRN 121)", "group": "gnss", "lat": -0.04915127763124453, "lon": -54.36779896214199, "alt_km": 35776.149901375706, "timestamp": "2025-12-19T14:48:36.490929+00:00", "meta": {"OBJECT_NAME": "EUTELSAT 5 WEST B (EGNOS/PRN 121)", "OBJECT_ID": "2019-067A", "EPOCH": "2025-12-19T06:23:28.768416", "MEAN_MOTION": 1.00271263, "ECCENTRICITY": 0.00029971, "INCLINATION": 0.0687, "RA_OF_ASC_NODE": 332.7359, "ARG_OF_PERICENTER": 295.3999, "MEAN_ANOMALY": 270.859, "EPHEMERIS_TYPE": 0, "CLASSIFICATION_TYPE": "U", "NORAD_CAT_ID": 44624, "ELEMENT_SET_NO": 999, "REV_AT_EPOCH": 2263, "BSTAR": 0, "MEAN_MOTION_DOT": -1.7e-07, "MEAN_MOTION_DDOT": 0}, "tle": {"line1": "1 44624U 19067A   25353.26630519 -.00000017  00000+0  00000+0 0  9990", "line2": "2 44624   0.0687 332.7359 0002997 295.3999 270.8590  1.00271263 22634"}}, "geometry": {"type": "Point", "coordinates": [-54.36779896214199, -0.04915127763124453]}}, {"type": "Feature", "properties": {"norad_id": 44709, "name": "BEIDOU-3 IGSO-3 (C40)", "group": "gnss", "lat": 31.956474029684884, "lon": 77.07549419503786, "alt_km": 35673.86282737313, "timestamp": "2025-12-19T14:48:36.490940+00:00", "meta": {"OBJECT_NAME": "BEIDOU-3 IGSO-3 (C40)", "OBJECT_ID": "2019-073A", "EPOCH": "2025-11-20T07:11:22.740000", "MEAN_MOTION": 1.00250097, "ECCENTRICITY": 0.0044538, "INCLINATION": 55.163, "RA_OF_ASC_NODE": 283.159, "ARG_OF_PERICENTER": 191.5856, "MEAN_ANOMALY": 168.2409, "EPHEMERIS_TYPE": 0, "CLASSIFICATION_TYPE": "U", "NORAD_CAT_ID": 44709, "ELEMENT_SET_NO": 999, "REV_AT_EPOCH": 2236, "BSTAR": 0, "MEAN_MOTION_DOT": -2.06e-06, "MEAN_MOTION_DDOT": 0}, "tle": {"line1": "1 44709U 19073A   25324.29956875 -.00000206  00000+0  00000+0 0  9998", "line2": "2 44709  55.1630 283.1590 0044538 191.5856 168.2409  1.00250097 22360"}}, "geometry": {"type": "Point", "coordinates": [77.07549419503786, 31.956474029684884]}}, {"type": "Feature", "properties": {"norad_id": 44793, "name": "BEIDOU-3 M22 (C44)", "group": "gnss", "lat": -53.35629587175847, "lon": -130.47855459163864, "alt_km": 21538.372785536576, "timestamp": "2025-12-19T14:48:36.490956+00:00", "meta": {"OBJECT_NAME": "BEIDOU-3 M22 (C44)", "OBJECT_ID": "2019-078A", "EPOCH": "2025-12-18T03:05:10.380768", "MEAN_MOTION": 1.86232153, "ECCENTRICITY": 0.00060099, "INCLINATION": 54.1032, "RA_OF_ASC_NODE": 306.1968, "ARG_OF_PERICENTER": 24.2925, "MEAN_ANOMALY": 335.7236, "EPHEMERIS_TYPE": 0, "CLASSIFICATION_TYPE": "U", "NORAD_CAT_ID": 44793, "ELEMENT_SET_NO": 999, "REV_AT_EPOCH": 4127, "BSTAR": 0, "MEAN_MOTION_DOT": -8.5e-07, "MEAN_MOTION_DDOT": 0}, "tle": {"line1": "1 44793U 19078A   25352.12859237 -.00000085  00000+0  00000+0 0  9998", "line2": "2 44793  54.1032 306.1968 0006009  24.2925 335.7236  1.86232153 41270"}}, "geometry": {"type": "Point", "coordinates": [-130.47855459163864, -53.35629587175847]}}, {"type": "Feature", "properties": {"norad_id": 44794, "name": "BEIDOU-3 M21 (C43)", "group": "gnss", "lat": -4.5508046830236655, "lon": 129.3898099893775, "alt_km": 21540.629235228775, "timestamp": "2025-12-19T14:48:36.490971+00:00", "meta": {"OBJECT_NAME": "BEIDOU-3 M21 (C43)", "OBJECT_ID": "2019-078B", "EPOCH": "2025-12-16T15:43:55.727904", "MEAN_MOTION": 1.86227668, "ECCENTRICITY": 0.00041169, "INCLINATION": 54.078, "RA_OF_ASC_NODE": 306.2132, "ARG_OF_PERICENTER": 11.942, "MEAN_ANOMALY": 348.0544, "EPHEMERIS_TYPE": 0, "CLASSIFICATION_TYPE": "U", "NORAD_CAT_ID": 44794, "ELEMENT_SET_NO": 999, "REV_AT_EPOCH": 4125, "BSTAR": 0, "MEAN_MOTION_DOT": -9.5e-07, "MEAN_MOTION_DDOT": 0}, "tle": {"line1": "1 44794U 19078B   25350.65550611 -.00000095  00000+0  00000+0 0  9990", "line2": "2 44794  54.0780 306.2132 0004116  11.9420 348.0544  1.86227668 41256"}}, "geometry": {"type": "Point", "coordinates": [129.3898099893775, -4.5508046830236655]}}, {"type": "Feature", "properties": {"norad_id": 44850, "name": "COSMOS 2544 (759)", "group": "gnss", "lat": -53.05704244217078, "lon": -62.936419979646594, "alt_km": 19100.834954276612, "timestamp": "2025-12-19T14:48:36.490984+00:00", "meta": {"OBJECT_NAME": "COSMOS 2544 (759)", "OBJECT_ID": "2019-088A", "EPOCH": "2025-12-16T11:40:43.010688", "MEAN_MOTION": 2.13101965, "ECCENTRICITY": 0.00138869, "INCLINATION": 65.4623, "RA_OF_ASC_NODE": 79.8328, "ARG_OF_PERICENTER": 249.7945, "MEAN_ANOMALY": 110.0707, "EPHEMERIS_TYPE": 0, "CLASSIFICATION_TYPE": "U", "NORAD_CAT_ID": 44850, "ELEMENT_SET_NO": 999, "REV_AT_EPOCH": 4682, "BSTAR": 0, "MEAN_MOTION_DOT": -5.3e-07, "MEAN_MOTION_DDOT": 0}, "tle": {"line1": "1 44850U 19088A   25350.48660892 -.00000053  00000+0  00000+0 0  9992", "line2": "2 44850  65.4623  79.8328 0013886 249.7945 110.0707  2.13101965 46826"}}, "geometry": {"type": "Point", "coordinates": [-62.936419979646594, -53.05704244217078]}}, {"type": "Feature", "properties": {"norad_id": 44864, "name": "BEIDOU-3 M19 (C41)", "group": "gnss", "lat": 17.823918614491834, "lon": 81.07323204461113, "alt_km": 21531.653832422147, "timestamp": "2025-12-19T14:48:36.490996+00:00", "meta": {"OBJECT_NAME": "BEIDOU-3 M19 (C41)", "OBJECT_ID": "2019-090A", "EPOCH": "2025-12-19T01:07:39.122112", "MEAN_MOTION": 1.86231633, "ECCENTRICITY": 0.00181901, "INCLINATION": 56.3984, "RA_OF_ASC_NODE": 68.7523, "ARG_OF_PERICENTER": 285.0515, "MEAN_ANOMALY": 74.1026, "EPHEMERIS_TYPE": 0, "CLASSIFICATION_TYPE": "U", "NORAD_CAT_ID": 44864, "ELEMENT_SET_NO": 999, "REV_AT_EPOCH": 4087, "BSTAR": 0, "MEAN_MOTION_DOT": -5.7e-07, "MEAN_MOTION_DDOT": 0}, "tle": {"line1": "1 44864U 19090A   25353.04698058 -.00000057  00000+0  00000+0 0  9994", "line2": "2 44864  56.3984  68.7523 0018190 285.0515  74.1026  1.86231633 40871"}}, "geometry": {"type": "Point", "coordinates": [81.07323204461113, 17.823918614491834]}}, {"type": "Feature", "properties": {"norad_id": 44865, "name": "BEIDOU-3 M20 (C42)", "group": "gnss", "lat": 51.05513215166476, "lon": -166.43354230865938, "alt_km": 21564.6854452894, "timestamp": "2025-12-19T14:48:36.491007+00:00", "meta": {"OBJECT_NAME": "BEIDOU-3 M20 (C42)", "OBJECT_ID": "2019-090B", "EPOCH": "2025-12-18T13:12:22.451040", "MEAN_MOTION": 1.86231689, "ECCENTRICITY": 0.00154108, "INCLINATION": 56.3994, "RA_OF_ASC_NODE": 68.8029, "ARG_OF_PERICENTER": 297.0214, "MEAN_ANOMALY": 178.7198, "EPHEMERIS_TYPE": 0, "CLASSIFICATION_TYPE": "U", "NORAD_CAT_ID": 44865, "ELEMENT_SET_NO": 999, "REV_AT_EPOCH": 4085, "BSTAR": 0, "MEAN_MOTION_DOT": -6.2e-07, "MEAN_MOTION_DDOT": 0}, "tle": {"line1": "1 44865U 19090B   25352.55025985 -.00000062  00000+0  00000+0 0  9999", "line2": "2 44865  56.3994  68.8029 0015410 297.0214 178.7198  1.86231689 40856"}}, "geometry": {"type": "Point", "coordinates": [-166.43354230865938, 51.05513215166476]}}]}